CONNECTA IOT-13         
1 67400U 26004AP  26031.12330538  .00005384  00000+0  26519-3 0  9991
2 67400  97.4539  32.2098 0011055 101.8856 258.3618 15.18331725  2967
CONNECTA IOT-14         
1 67401U 26004AQ  26030.99016039  .00007770  00000+0  37985-3 0  9993
2 67401  97.4483  32.0672 0011680  97.3258 262.9304 15.18440959  2942
CONNECTA IOT-15         
1 67402U 26004AR  26031.14220519 -.00008199  00000+0 -41437-3 0  9997
2 67402  97.4542  32.1864 0004739  79.8704 280.3063 15.16824470  2950
SHIJIAN-29B (SJ-29B)    
1 67403U 25315C   26031.07865979 -.00000076  00000+0  00000+0 0  9991
2 67403   3.0504  98.7081 0001599 306.7348 186.2722  1.00271673   311
STARLINK-36484          
1 67404U 26005A   26031.16668981 -.02036275  00000+0 -30869-1 0  9994
2 67404  43.0004  93.7785 0001374 271.5556  68.5496 15.56887277  4108
STARLINK-36452          
1 67405U 26005B   26031.16668981 -.02038192  00000+0 -30902-1 0  9993
2 67405  43.0007  93.7738 0001346 268.9549  73.0694 15.56887764  4103
STARLINK-36409          
1 67406U 26005C   26031.16668981 -.02033998  00000+0 -30832-1 0  9995
2 67406  43.0005  93.7690 0001282 267.1099  76.8279 15.56887331  4154
STARLINK-36510          
1 67407U 26005D   26031.16668981 -.02036645  00000+0 -30876-1 0  9996
2 67407  43.0006  93.7642 0001274 262.5756  83.2813 15.56888083  4154
STARLINK-36509          
1 67408U 26005E   26031.16668981 -.02033008  00000+0 -30817-1 0  9992
2 67408  43.0006  93.7588 0001521 267.9576  79.8203 15.56883288  4154
STARLINK-36507          
1 67409U 26005F   26031.16668981 -.02038192  00000+0 -30899-1 0  9992
2 67409  43.0003  93.7542 0001417 263.3560  86.3355 15.56889242  4156
STARLINK-36508          
1 67410U 26005G   26031.16668981 -.02036508  00000+0 -30874-1 0  9996
2 67410  43.0006  93.7497 0001250 263.5229  88.0852 15.56887689  4153
STARLINK-36503          
1 67411U 26005H   26031.16668981 -.02031616  00000+0 -30790-1 0  9999
2 67411  43.0005  93.7443 0001447 266.3674  87.1559 15.56886498  3898
