CCSDS_OMM_VERS = 2.0
CREATION_DATE  = 
ORIGINATOR     = 

OBJECT_NAME    = CONNECTA IOT-13
OBJECT_ID      = 2026-004AP
CENTER_NAME    = EARTH
REF_FRAME      = TEME
TIME_SYSTEM    = UTC
MEAN_ELEMENT_THEORY = SGP/SGP4

EPOCH          = 2026-01-31T02:57:33.584832
MEAN_MOTION    = 15.18331725
ECCENTRICITY   = .0011055
INCLINATION    = 97.4539
RA_OF_ASC_NODE = 32.2098
ARG_OF_PERICENTER = 101.8856
MEAN_ANOMALY   = 258.3618

EPHEMERIS_TYPE = 0
CLASSIFICATION_TYPE = U
NORAD_CAT_ID   = 67400
ELEMENT_SET_NO = 999
REV_AT_EPOCH   = 296
BSTAR          = .26519E-3
MEAN_MOTION_DOT = .5384E-4
MEAN_MOTION_DDOT = 0

CCSDS_OMM_VERS = 2.0
CREATION_DATE  = 
ORIGINATOR     = 

OBJECT_NAME    = CONNECTA IOT-14
OBJECT_ID      = 2026-004AQ
CENTER_NAME    = EARTH
REF_FRAME      = TEME
TIME_SYSTEM    = UTC
MEAN_ELEMENT_THEORY = SGP/SGP4

EPOCH          = 2026-01-30T23:45:49.857696
MEAN_MOTION    = 15.18440959
ECCENTRICITY   = .001168
INCLINATION    = 97.4483
RA_OF_ASC_NODE = 32.0672
ARG_OF_PERICENTER = 97.3258
MEAN_ANOMALY   = 262.9304

EPHEMERIS_TYPE = 0
CLASSIFICATION_TYPE = U
NORAD_CAT_ID   = 67401
ELEMENT_SET_NO = 999
REV_AT_EPOCH   = 294
BSTAR          = .37985E-3
MEAN_MOTION_DOT = .777E-4
MEAN_MOTION_DDOT = 0

CCSDS_OMM_VERS = 2.0
CREATION_DATE  = 
ORIGINATOR     = 

OBJECT_NAME    = CONNECTA IOT-15
OBJECT_ID      = 2026-004AR
CENTER_NAME    = EARTH
REF_FRAME      = TEME
TIME_SYSTEM    = UTC
MEAN_ELEMENT_THEORY = SGP/SGP4

EPOCH          = 2026-01-31T03:24:46.528416
MEAN_MOTION    = 15.16824470
ECCENTRICITY   = .0004739
INCLINATION    = 97.4542
RA_OF_ASC_NODE = 32.1864
ARG_OF_PERICENTER = 79.8704
MEAN_ANOMALY   = 280.3063

EPHEMERIS_TYPE = 0
CLASSIFICATION_TYPE = U
NORAD_CAT_ID   = 67402
ELEMENT_SET_NO = 999
REV_AT_EPOCH   = 295
BSTAR          = -.41437E-3
MEAN_MOTION_DOT = -.8199E-4
MEAN_MOTION_DDOT = 0

CCSDS_OMM_VERS = 2.0
CREATION_DATE  = 
ORIGINATOR     = 

OBJECT_NAME    = SHIJIAN-29B (SJ-29B)
OBJECT_ID      = 2025-315C
CENTER_NAME    = EARTH
REF_FRAME      = TEME
TIME_SYSTEM    = UTC
MEAN_ELEMENT_THEORY = SGP/SGP4

EPOCH          = 2026-01-31T01:53:16.205856
MEAN_MOTION    = 1.00271673
ECCENTRICITY   = .0001599
INCLINATION    = 3.0504
RA_OF_ASC_NODE = 98.7081
ARG_OF_PERICENTER = 306.7348
MEAN_ANOMALY   = 186.2722

EPHEMERIS_TYPE = 0
CLASSIFICATION_TYPE = U
NORAD_CAT_ID   = 67403
ELEMENT_SET_NO = 999
REV_AT_EPOCH   = 31
BSTAR          = 0
MEAN_MOTION_DOT = -.76E-6
MEAN_MOTION_DDOT = 0

CCSDS_OMM_VERS = 2.0
CREATION_DATE  = 
ORIGINATOR     = 

OBJECT_NAME    = STARLINK-36484
OBJECT_ID      = 2026-005A
CENTER_NAME    = EARTH
REF_FRAME      = TEME
TIME_SYSTEM    = UTC
MEAN_ELEMENT_THEORY = SGP/SGP4

EPOCH          = 2026-01-31T04:00:01.999584
MEAN_MOTION    = 15.56887277
ECCENTRICITY   = .0001374
INCLINATION    = 43.0004
RA_OF_ASC_NODE = 93.7785
ARG_OF_PERICENTER = 271.5556
MEAN_ANOMALY   = 68.5496

EPHEMERIS_TYPE = 0
CLASSIFICATION_TYPE = U
NORAD_CAT_ID   = 67404
ELEMENT_SET_NO = 999
REV_AT_EPOCH   = 410
BSTAR          = -.30869E-1
MEAN_MOTION_DOT = -.2036275E-1
MEAN_MOTION_DDOT = 0

CCSDS_OMM_VERS = 2.0
CREATION_DATE  = 
ORIGINATOR     = 

OBJECT_NAME    = STARLINK-36452
OBJECT_ID      = 2026-005B
CENTER_NAME    = EARTH
REF_FRAME      = TEME
TIME_SYSTEM    = UTC
MEAN_ELEMENT_THEORY = SGP/SGP4

EPOCH          = 2026-01-31T04:00:01.999584
MEAN_MOTION    = 15.56887764
ECCENTRICITY   = .0001346
INCLINATION    = 43.0007
RA_OF_ASC_NODE = 93.7738
ARG_OF_PERICENTER = 268.9549
MEAN_ANOMALY   = 73.0694

EPHEMERIS_TYPE = 0
CLASSIFICATION_TYPE = U
NORAD_CAT_ID   = 67405
ELEMENT_SET_NO = 999
REV_AT_EPOCH   = 410
BSTAR          = -.30902E-1
MEAN_MOTION_DOT = -.2038192E-1
MEAN_MOTION_DDOT = 0

CCSDS_OMM_VERS = 2.0
CREATION_DATE  = 
ORIGINATOR     = 

OBJECT_NAME    = STARLINK-36409
OBJECT_ID      = 2026-005C
CENTER_NAME    = EARTH
REF_FRAME      = TEME
TIME_SYSTEM    = UTC
MEAN_ELEMENT_THEORY = SGP/SGP4

EPOCH          = 2026-01-31T04:00:01.999584
MEAN_MOTION    = 15.56887331
ECCENTRICITY   = .0001282
INCLINATION    = 43.0005
RA_OF_ASC_NODE = 93.7690
ARG_OF_PERICENTER = 267.1099
MEAN_ANOMALY   = 76.8279

EPHEMERIS_TYPE = 0
CLASSIFICATION_TYPE = U
NORAD_CAT_ID   = 67406
ELEMENT_SET_NO = 999
REV_AT_EPOCH   = 415
BSTAR          = -.30832E-1
MEAN_MOTION_DOT = -.2033998E-1
MEAN_MOTION_DDOT = 0

CCSDS_OMM_VERS = 2.0
CREATION_DATE  = 
ORIGINATOR     = 

OBJECT_NAME    = STARLINK-36510
OBJECT_ID      = 2026-005D
CENTER_NAME    = EARTH
REF_FRAME      = TEME
TIME_SYSTEM    = UTC
MEAN_ELEMENT_THEORY = SGP/SGP4

EPOCH          = 2026-01-31T04:00:01.999584
MEAN_MOTION    = 15.56888083
ECCENTRICITY   = .0001274
INCLINATION    = 43.0006
RA_OF_ASC_NODE = 93.7642
ARG_OF_PERICENTER = 262.5756
MEAN_ANOMALY   = 83.2813

EPHEMERIS_TYPE = 0
CLASSIFICATION_TYPE = U
NORAD_CAT_ID   = 67407
ELEMENT_SET_NO = 999
REV_AT_EPOCH   = 415
BSTAR          = -.30876E-1
MEAN_MOTION_DOT = -.2036645E-1
MEAN_MOTION_DDOT = 0

CCSDS_OMM_VERS = 2.0
CREATION_DATE  = 
ORIGINATOR     = 

OBJECT_NAME    = STARLINK-36509
OBJECT_ID      = 2026-005E
CENTER_NAME    = EARTH
REF_FRAME      = TEME
TIME_SYSTEM    = UTC
MEAN_ELEMENT_THEORY = SGP/SGP4

EPOCH          = 2026-01-31T04:00:01.999584
MEAN_MOTION    = 15.56883288
ECCENTRICITY   = .0001521
INCLINATION    = 43.0006
RA_OF_ASC_NODE = 93.7588
ARG_OF_PERICENTER = 267.9576
MEAN_ANOMALY   = 79.8203

EPHEMERIS_TYPE = 0
CLASSIFICATION_TYPE = U
NORAD_CAT_ID   = 67408
ELEMENT_SET_NO = 999
REV_AT_EPOCH   = 415
BSTAR          = -.30817E-1
MEAN_MOTION_DOT = -.2033008E-1
MEAN_MOTION_DDOT = 0

CCSDS_OMM_VERS = 2.0
CREATION_DATE  = 
ORIGINATOR     = 

OBJECT_NAME    = STARLINK-36507
OBJECT_ID      = 2026-005F
CENTER_NAME    = EARTH
REF_FRAME      = TEME
TIME_SYSTEM    = UTC
MEAN_ELEMENT_THEORY = SGP/SGP4

EPOCH          = 2026-01-31T04:00:01.999584
MEAN_MOTION    = 15.56889242
ECCENTRICITY   = .0001417
INCLINATION    = 43.0003
RA_OF_ASC_NODE = 93.7542
ARG_OF_PERICENTER = 263.3560
MEAN_ANOMALY   = 86.3355

EPHEMERIS_TYPE = 0
CLASSIFICATION_TYPE = U
NORAD_CAT_ID   = 67409
ELEMENT_SET_NO = 999
REV_AT_EPOCH   = 415
BSTAR          = -.30899E-1
MEAN_MOTION_DOT = -.2038192E-1
MEAN_MOTION_DDOT = 0

CCSDS_OMM_VERS = 2.0
CREATION_DATE  = 
ORIGINATOR     = 

OBJECT_NAME    = STARLINK-36508
OBJECT_ID      = 2026-005G
CENTER_NAME    = EARTH
REF_FRAME      = TEME
TIME_SYSTEM    = UTC
MEAN_ELEMENT_THEORY = SGP/SGP4

EPOCH          = 2026-01-31T04:00:01.999584
MEAN_MOTION    = 15.56887689
ECCENTRICITY   = .000125
INCLINATION    = 43.0006
RA_OF_ASC_NODE = 93.7497
ARG_OF_PERICENTER = 263.5229
MEAN_ANOMALY   = 88.0852

EPHEMERIS_TYPE = 0
CLASSIFICATION_TYPE = U
NORAD_CAT_ID   = 67410
ELEMENT_SET_NO = 999
REV_AT_EPOCH   = 415
BSTAR          = -.30874E-1
MEAN_MOTION_DOT = -.2036508E-1
MEAN_MOTION_DDOT = 0

CCSDS_OMM_VERS = 2.0
CREATION_DATE  = 
ORIGINATOR     = 

OBJECT_NAME    = STARLINK-36503
OBJECT_ID      = 2026-005H
CENTER_NAME    = EARTH
REF_FRAME      = TEME
TIME_SYSTEM    = UTC
MEAN_ELEMENT_THEORY = SGP/SGP4

EPOCH          = 2026-01-31T04:00:01.999584
MEAN_MOTION    = 15.56886498
ECCENTRICITY   = .0001447
INCLINATION    = 43.0005
RA_OF_ASC_NODE = 93.7443
ARG_OF_PERICENTER = 266.3674
MEAN_ANOMALY   = 87.1559

EPHEMERIS_TYPE = 0
CLASSIFICATION_TYPE = U
NORAD_CAT_ID   = 67411
ELEMENT_SET_NO = 999
REV_AT_EPOCH   = 389
BSTAR          = -.3079E-1
MEAN_MOTION_DOT = -.2031616E-1
MEAN_MOTION_DDOT = 0

